GSAT0217 (GALILEO 21)   
1 43057U 17079C   22001.17329010  .00000011  00000+0  00000+0 0  9991
2 43057  55.8527 266.3312 0004449 319.9278  40.1090  1.70473585 25232
GSAT0218 (GALILEO 22)   
1 43058U 17079D   21364.04693316  .00000006  00000+0  00000+0 0  9996
2 43058  55.8547 266.3871 0004730 299.1944  60.8173  1.70473632 25220
GCOM-C (SHIKISAI)       
1 43065U 17082A   22002.82346684  .00000049  00000+0  38267-4 0  9995
2 43065  98.6674  77.7497 0001015 102.0922 258.0372 14.27266160209940
IRIDIUM 135             
1 43070U 17083A   22002.84739719  .00000128  00000+0  38754-4 0  9998
2 43070  86.3973 281.6467 0002217  95.2422 264.9027 14.34220606211048
IRIDIUM 138             
1 43071U 17083B   22002.73323010  .00000122  00000+0  36327-4 0  9998
2 43071  86.3963 281.5234 0001953  79.5964 280.5452 14.34218758211019
IRIDIUM 116             
1 43072U 17083C   22002.70150708  .00000139  00000+0  42464-4 0  9995
2 43072  86.3972 281.7127 0002355  84.2366 275.9098 14.34214883211041
IRIDIUM 130             
1 43073U 17083D   22002.87910506  .00000125  00000+0  37468-4 0  9997
2 43073  86.3981 281.7546 0002061  78.2886 281.8541 14.34220846211013
IRIDIUM 151             
1 43074U 17083E   22002.85375220  .00000123  00000+0  36967-4 0  9995
2 43074  86.3974 281.6695 0002334  82.1525 277.9936 14.34217084211033
IRIDIUM 134             
1 43075U 17083F   22002.75226074  .00000124  00000+0  37197-4 0  9994
2 43075  86.3975 281.6971 0001794  89.1863 270.9538 14.34220799210984
IRIDIUM 137             
1 43076U 17083G   22002.83469670  .00000130  00000+0  39282-4 0  9999
2 43076  86.3976 281.7253 0002389  81.9162 278.2305 14.34214615211066
IRIDIUM 141             
1 43077U 17083H   22002.82836566  .00000123  00000+0  36930-4 0  9990
2 43077  86.3972 281.6484 0002120  78.4494 281.6940 14.34221342211068
IRIDIUM 153             
1 43078U 17083J   22002.78054575  .00000125  00000+0  37442-4 0  9999
2 43078  86.3978 250.0875 0001922  65.5223 294.6173 14.34216669212165
IRIDIUM 131             
1 43079U 17083K   22002.81568866  .00000125  00000+0  37589-4 0  9999
2 43079  86.3978 281.7310 0001944  77.3963 282.7450 14.34214863210996
LKW-2                   
1 43080U 17084A   22002.81446965  .00002823  00000+0  12178-3 0  9990
2 43080  97.3298  80.2772 0005880 118.6747  14.5928 15.23333936224045
YAOGAN 30 G             
1 43081U 17085A   22002.83987906 -.00000278  00000+0 -25548-4 0  9999
2 43081  34.9981 231.5474 0003260 106.0978 254.0145 14.90084072219198
YAOGAN 30 H             
1 43082U 17085B   22002.86371751  .00000706  00000+0  74385-4 0  9995
2 43082  34.9965 231.6294 0006430 307.2118  52.7979 14.90109349219198
YAOGAN 30 J             
1 43083U 17085C   22002.81869160  .00000782  00000+0  82091-4 0  9994
2 43083  34.9980 232.2522 0003979  77.7721 282.3414 14.90108811219199
SUPERVIEW-1 03          
1 43099U 18002A   22002.93517716  .00002467  00000+0  13204-3 0  9992
2 43099  97.4606  84.4038 0005194 333.9074  81.0820 15.15960587220217
SUPERVIEW-1 04          
1 43100U 18002B   22002.93227133  .00002317  00000+0  12393-3 0  9998
2 43100  97.4609  84.5452 0001436  97.0944  20.5437 15.16049303220210
BEIDOU-3 M3             
1 43107U 18003A   22002.72105135 -.00000085  00000+0  00000+0 0  9999
2 43107  55.3565 358.3266 0003515  37.3649 183.4646  1.86232527 27068
BEIDOU-3 M4             
1 43108U 18003B   22002.65651046 -.00000085  00000+0  00000+0 0  9999
2 43108  55.3495 358.3191 0004238 256.7674 325.6083  1.86230961 27061
CARTOSAT-2F             
1 43111U 18004A   22002.91398080  .00001770  00000+0  87223-4 0  9997
2 43111  97.4746  65.3686 0002668 241.5680 221.5627 15.19251328220412
LEO VANTAGE 1           
1 43113U 18004C   22002.74316747  .00000022  00000+0  24008-4 0  9991
2 43113  99.2681  66.1878 0270881 325.8681  32.5333 14.25550204200238
ICEYE-X1                
1 43114U 18004D   22002.75694527  .00003919  00000+0  15674-3 0  9994
2 43114  97.3857  77.8715 0008370 207.6439 152.4355 15.25659269220951
CARBONITE 2             
1 43115U 18004E   22002.87376536  .00001792  00000+0  77524-4 0  9995
2 43115  97.3817  76.2714 0008755 215.2608 144.8051 15.23701646220885
INS-1C                  
1 43116U 18004F   22002.89589725  .00004596  00000+0  17869-3 0  9994
2 43116  97.3962  80.4353 0007804 209.7000 150.3797 15.26512177221052
CORVUS BC3              
1 43118U 18004H   22002.74188609  .00002835  00000+0  11592-3 0  9997
2 43118  97.3843  77.7204 0008628 220.7350 139.3243 15.25147316220940
FLOCK 3P'-3             
1 43119U 18004J   22002.67118200  .00002776  00000+0  11352-3 0  9998
2 43119  97.3949  78.7521 0008602 221.8810 138.1771 15.25157549220937
FLOCK 3P'-2             
1 43120U 18004K   22002.69440846  .00002646  00000+0  10960-3 0  9996
2 43120  97.3958  78.4856 0008588 222.7589 137.2981 15.24775197220918
FLOCK 3P'-4             
1 43122U 18004M   22002.75040155  .00002274  00000+0  94424-4 0  9999
2 43122  97.3967  78.6826 0008346 223.7459 136.3118 15.24838138220926
LEMUR-2-MCCAFFERTY      
1 43123U 18004N   22002.00725137  .00010050  00000+0  35375-3 0  9998
2 43123  97.3966  81.8860 0007505 212.4067 147.6713 15.29496633221096
LEMUR-2-PETERWEBSTER    
1 43124U 18004P   22002.17198185  .00008625  00000+0  30587-3 0  9999
2 43124  97.3967  81.8454 0007500 209.6701 150.4114 15.29298350221100
LEMUR-2-BROWNCOW        
1 43125U 18004Q   22002.74463032  .00007116  00000+0  24480-3 0  9998
2 43125  97.4002  83.5551 0007453 203.5800 156.5100 15.30356519221251
LEMUR-2-DAVEWILSON      
1 43126U 18004R   22002.77443181  .00008720  00000+0  29781-3 0  9996
2 43126  97.3995  83.3179 0007435 205.2897 154.7980 15.30522496221245
DEMOSAT 2               
1 43127U 18004S   22002.75692678  .00002906  00000+0  11757-3 0  9996
2 43127  97.3870  78.5117 0007996 221.0534 139.0103 15.25487534220982
ARKYD 6A                
1 43130U 18004V   22002.71750317  .00003664  00000+0  14457-3 0  9993
2 43130  97.3892  79.2597 0007998 219.7497 140.3156 15.26157491221019
MICROMAS-2A             
1 43131U 18004W   22002.75351026  .00007785  00000+0  27362-3 0  9999
2 43131  97.3951  82.4667 0007009 207.7982 152.2885 15.29626740221202
PICSAT                  
1 43132U 18004X   22002.73448997  .00005130  00000+0  19408-3 0  9996
2 43132  97.3920  80.4444 0007611 216.9850 143.0866 15.27367115221084
CNUSAIL-1               
1 43133U 18004Y   22002.71587638  .00003408  00000+0  13558-3 0  9997
2 43133  97.3885  79.0038 0007817 221.0417 139.0233 15.25934872221005
2018-004Z               
1 43134U 18004Z   22002.77548606  .00004280  00000+0  16515-3 0  9991
2 43134  97.3909  80.0082 0007574 218.8423 141.2272 15.26810957221067
2018-004AA              
1 43135U 18004AA  22002.78444492  .00005710  00000+0  21061-3 0  9992
2 43135  97.3932  81.1960 0007383 214.6423 145.4336 15.28163177221135
2018-004AB              
1 43136U 18004AB  22001.74258373  .00007957  00000+0  28650-3 0  9995
2 43136  97.3961  80.9533 0007055 217.4742 142.6007 15.28827442221015
FOX-1D (AO-92)          
1 43137U 18004AC  22002.77394824  .00003736  00000+0  14613-3 0  9997
2 43137  97.3892  79.6822 0007277 219.7193 140.3514 15.26436630221051
SPACEBEE-4              
1 43139U 18004AE  22002.74727461  .00011895  00000+0  37372-3 0  9995
2 43139  97.4036  85.8350 0006110 201.4022 158.6966 15.33131803221384
SPACEBEE-3              
1 43140U 18004AF  22002.75676133  .00016886  00000+0  48067-3 0  9995
2 43140  97.4077  88.1091 0005632 195.9969 164.1098 15.36172949221516
SPACEBEE-2              
1 43141U 18004AG  22002.14121692  .00024261  00000+0  66557-3 0  9994
2 43141  97.4103  88.3596 0005148 195.6401 164.4686 15.37252400221461
SPACEBEE-1              
1 43142U 18004AH  22002.77447417  .00020918  00000+0  54930-3 0  9997
2 43142  97.4116  89.9012 0005222 188.8316 171.2838 15.38636061221609
CICERO 7                
1 43143U 18004AJ  22002.72459760  .00006471  00000+0  23023-3 0  9994
2 43143  97.3925  82.3526 0005320 216.7562 143.3314 15.29305182221210
TYVAK-61C               
1 43144U 18004AK  22001.74560620  .00008742  00000+0  30245-3 0  9991
2 43144  97.3999  82.9921 0005628 226.1199 133.9578 15.30110305221130
LKW-3                   
1 43146U 18006A   22002.95855017  .00003198  00000+0  13799-3 0  9991
2 43146  97.4691 126.0518 0001545 209.1184 288.6844 15.23265693220858
ASNARO-2                
1 43152U 18007A   22002.95913269 -.00002445  00000+0 -10304-3 0  9998
2 43152  97.4235  10.9316 0001671  81.2483 341.4066 15.22370496219991
XIAOXIANG-2             
1 43155U 18008A   22002.96153098  .00003606  00000+0  20571-3 0  9994
2 43155  97.3789  66.7397 0017047   4.6373 119.5162 15.13265836218234
ZHOU ENLAI              
1 43156U 18008B   22002.94508509  .00003440  00000+0  19846-3 0  9993
2 43156  97.3835  66.5687 0014384   5.6855 119.1646 15.12917961218161
KIPP                    
1 43157U 18008C   22002.74981438  .00002468  00000+0  14458-3 0  9991
2 43157  97.3876  66.4542 0014883   2.4831 357.6472 15.12624678218109
QUANTUTONG 1            
1 43158U 18008D   22002.96897255  .00003708  00000+0  21780-3 0  9993
2 43158  97.3783  64.8660 0013525   5.5019 118.5645 15.12229546218082
JILIN-01-07             
1 43159U 18008E   22002.93891380  .00000730  00000+0  47862-4 0  9996
2 43159  97.3716  62.7481 0013779  10.4890 114.5120 15.10571164217997
JILIN-01-08             
1 43160U 18008F   22002.95376334  .00001213  00000+0  77027-4 0  9990
2 43160  97.3712  62.6314 0009996  26.5875  97.2182 15.10622159217992
SBIRS GEO-3 (USA 282)   
1 43162U 18009A   22002.68933619 -.00000283  00000+0  00000+0 0  9997
2 43162   3.8604 318.0748 0001898 315.8987 215.4813  1.00270399 14535
LEMUR-2-MARSHALL        
1 43165U 18010C   22002.10984293  .00005664  00000+0  22765-3 0  9996
2 43165  82.9148 224.4616 0026872 200.7215 159.2937 15.24369510219116
